NORAD_CAT_ID,OBJECT_NAME,OBJECT_TYPE,EPOCH,MEAN_MOTION,ECCENTRICITY,INCLINATION,RA_OF_ASC_NODE,ARG_OF_PERICENTER,MEAN_ANOMALY,BSTAR,MEAN_MOTION_DOT,MEAN_MOTION_DDOT,TLE_LINE0,TLE_LINE1,TLE_LINE2,SEMIMAJOR_AXIS,PERIOD,APOGEE,PERIGEE,DECAYED
51144.0,STARLINK-3185,PAYLOAD,2024-07-30 06:56:52,15.08844815,0.0001071,53.2159,56.0764,93.9851,266.1264,5.8553e-05,6.44e-06,0.0,0 STARLINK-3185,1 51144U 22005AS  24212.28949408  .00000644  00000-0  58553-4 0  9993,2 51144  53.2159  56.0764 0001071  93.9851 266.1264 15.08844815141179,6917.866,95.437,540.472,538.99,0.0
51144.0,STARLINK-3185,PAYLOAD,2024-07-30 19:39:57,15.0884352,0.0001142,53.2167,53.6956,91.5069,268.6054,4.0812e-05,3.62e-06,0.0,0 STARLINK-3185,1 51144U 22005AS  24212.81941447  .00000362  00000-0  40812-4 0  9993,2 51144  53.2167  53.6956 0001142  91.5069 268.6054 15.08843520140140,6917.87,95.437,540.525,538.945,0.0
51144.0,STARLINK-3185,PAYLOAD,2024-07-31 13:09:12,15.08841404,0.0001483,53.2168,50.4267,79.7776,280.3384,4.7306e-05,4.65e-06,0.0,0 STARLINK-3185,1 51144U 22005AS  24213.54805607  .00000465  00000-0  47306-4 0  9990,2 51144  53.2168  50.4267 0001483  79.7776 280.3384 15.08841404141363,6917.876,95.437,540.767,538.715,0.0
51144.0,STARLINK-3185,PAYLOAD,2024-07-31 19:30:44,15.08842253,0.0001361,53.2171,49.2364,83.2099,276.9048,-2.3391e-05,-6.6e-06,0.0,0 STARLINK-3185,1 51144U 22005AS  24213.81301707 -.00000660  00000-0 -23391-4 0  9999,2 51144  53.2171  49.2364 0001361  83.2099 276.9048 15.08842253140296,6917.874,95.437,540.68,538.797,0.0
51144.0,STARLINK-3185,PAYLOAD,2024-08-01 06:38:28,15.08821976,0.0001805,53.216,47.153,57.0798,303.0368,-0.00016023,-2.836e-05,0.0,0 STARLINK-3185,1 51144U 22005AS  24214.27671647 -.00002836  00000-0 -16023-3 0  9993,2 51144  53.2160  47.1530 0001805  57.0798 303.0368 15.08821976141471,6917.935,95.439,541.049,538.552,0.0
51144.0,STARLINK-3185,PAYLOAD,2024-08-01 19:21:32,15.0884508,0.0001464,53.218,44.7739,93.1457,266.9703,0.00017232,2.456e-05,0.0,0 STARLINK-3185,1 51144U 22005AS  24214.80662147  .00002456  00000-0  17232-3 0  9996,2 51144  53.2180  44.7739 0001464  93.1457 266.9703 15.08845080141552,6917.865,95.437,540.743,538.717,0.0
51144.0,STARLINK-3185,PAYLOAD,2024-08-01 22:32:18,15.08848503,0.0001432,53.2177,44.1785,90.973,269.1426,0.00019517,2.82e-05,0.0,0 STARLINK-3185,1 51144U 22005AS  24214.93909851  .00002820  00000-0  19517-3 0  9999,2 51144  53.2177  44.1785 0001432  90.9730 269.1426 15.08848503140466,6917.854,95.437,540.71,538.729,0.0
51144.0,STARLINK-3185,PAYLOAD,2024-08-02 12:50:46,15.08851376,0.000128,53.2169,41.5024,91.2381,268.8757,0.00023955,3.528e-05,0.0,0 STARLINK-3185,1 51144U 22005AS  24215.53525473  .00003528  00000-0  23955-3 0  9997,2 51144  53.2169  41.5024 0001280  91.2381 268.8757 15.08851376140556,6917.846,95.437,540.596,538.825,0.0
51144.0,STARLINK-3185,PAYLOAD,2024-08-02 19:12:17,15.08864261,0.0001302,53.2171,40.3128,92.3792,267.7349,0.00034491,5.209e-05,0.0,0 STARLINK-3185,1 51144U 22005AS  24215.80020351  .00005209  00000-0  34491-3 0  9997,2 51144  53.2171  40.3128 0001302  92.3792 267.7349 15.08864261141704,6917.806,95.436,540.572,538.771,0.0
51144.0,STARLINK-3185,PAYLOAD,2024-08-03 12:41:33,15.08845974,0.0001456,53.2158,37.0468,77.8873,282.2282,0.00029945,4.482e-05,0.0,0 STARLINK-3185,1 51144U 22005AS  24216.52886183  .00004482  00000-0  29945-3 0  9990,2 51144  53.2158  37.0468 0001456  77.8873 282.2282 15.08845974141817,6917.862,95.437,540.734,538.72,0.0
51144.0,STARLINK-3185,PAYLOAD,2024-08-03 19:03:05,15.08849588,0.0001333,53.2166,35.8528,95.1446,264.9699,0.00023546,3.462e-05,0.0,0 STARLINK-3185,1 51144U 22005AS  24216.79381719  .00003462  00000-0  23546-3 0  9992,2 51144  53.2166  35.8528 0001333  95.1446 264.9699 15.08849588140747,6917.851,95.437,540.638,538.794,0.0
51144.0,STARLINK-3185,PAYLOAD,2024-08-04 10:56:56,15.08845479,0.0001136,53.2175,32.8839,100.6455,259.4665,-0.00013206,-2.389e-05,0.0,0 STARLINK-3185,1 51144U 22005AS  24217.45621308 -.00002389  00000-0 -13206-3 0  9998,2 51144  53.2175  32.8839 0001136 100.6455 259.4665 15.08845479140840,6917.864,95.437,540.515,538.943,0.0
51144.0,STARLINK-3185,PAYLOAD,2024-08-04 18:53:52,15.08847587,0.0001131,53.216,31.3899,72.3087,287.8029,-0.0001767,-3.099e-05,0.0,0 STARLINK-3185,1 51144U 22005AS  24217.78741152 -.00003099  00000-0 -17670-3 0  9992,2 51144  53.2160  31.3899 0001131  72.3087 287.8029 15.08847587142006,6917.857,95.437,540.505,538.94,0.0
51144.0,STARLINK-3185,PAYLOAD,2024-08-05 18:44:39,15.08851473,0.0001141,53.216,26.9314,106.0664,254.0454,0.00018393,2.642e-05,0.0,0 STARLINK-3185,1 51144U 22005AS  24218.78100980  .00002642  00000-0  18393-3 0  9995,2 51144  53.2160  26.9314 0001141 106.0664 254.0454 15.08851473141045,6917.845,95.437,540.5,538.921,0.0
51144.0,STARLINK-3185,PAYLOAD,2024-08-06 04:16:58,15.0883912,0.0001123,53.2169,25.1463,94.118,265.9941,5.292e-05,5.54e-06,0.0,0 STARLINK-3185,1 51144U 22005AS  24219.17845699  .00000554  00000-0  52920-4 0  9997,2 51144  53.2169  25.1463 0001123  94.1180 265.9941 15.08839120142217,6917.883,95.438,540.525,538.971,0.0
51144.0,STARLINK-3185,PAYLOAD,2024-08-06 18:35:27,15.08834675,0.0001544,53.2178,22.4717,103.6274,256.489,0.00011427,1.531e-05,0.0,0 STARLINK-3185,1 51144U 22005AS  24219.77462430  .00001531  00000-0  11427-3 0  9993,2 51144  53.2178  22.4717 0001544 103.6274 256.4890 15.08834675142304,6917.897,95.438,540.83,538.694,0.0
51144.0,STARLINK-3185,PAYLOAD,2024-08-07 10:29:18,15.08840354,0.0001396,53.218,19.4965,91.9182,268.197,7.9563e-05,9.79e-06,0.0,0 STARLINK-3185,1 51144U 22005AS  24220.43702377  .00000979  00000-0  79563-4 0  9996,2 51144  53.2180  19.4965 0001396  91.9182 268.1970 15.08840354141297,6917.879,95.438,540.71,538.779,0.0
51144.0,STARLINK-3185,PAYLOAD,2024-08-07 16:50:50,15.0885135,0.0001232,53.2179,18.308,93.8918,266.2215,4.6095e-05,4.46e-06,0.0,0 STARLINK-3185,1 51144U 22005AS  24220.70197661  .00000446  00000-0  46095-4 0  9993,2 51144  53.2179  18.3080 0001232  93.8918 266.2215 15.08851350142445,6917.846,95.437,540.563,538.858,0.0
51144.0,STARLINK-3185,PAYLOAD,2024-08-08 10:20:06,15.08839338,0.0001548,53.2178,15.0393,85.0204,275.0965,6.173e-05,6.95e-06,0.0,0 STARLINK-3185,1 51144U 22005AS  24221.43062662  .00000695  00000-0  61730-4 0  9995,2 51144  53.2178  15.0393 0001548  85.0204 275.0965 15.08839338141447,6917.882,95.438,540.818,538.677,0.0
51144.0,STARLINK-3185,PAYLOAD,2024-08-08 16:41:38,15.08842004,0.0001967,53.2179,13.8525,37.7947,322.3183,0.00019697,2.848e-05,0.0,0 STARLINK-3185,1 51144U 22005AS  24221.69558292  .00002848  00000-0  19697-3 0  9998,2 51144  53.2179  13.8525 0001967  37.7947 322.3183 15.08842004142593,6917.874,95.437,541.1,538.379,0.0
51144.0,STARLINK-3185,PAYLOAD,2024-08-09 03:49:17,15.08909218,0.0001084,53.2186,11.7695,76.0748,284.0365,-0.00079811,-0.00012991,0.0,0 STARLINK-3185,1 51144U 22005AS  24222.15922578 -.00012991  00000-0 -79811-3 0  9998,2 51144  53.2186  11.7695 0001084  76.0748 284.0365 15.08909218142666,6917.669,95.433,540.284,538.784,0.0
51144.0,STARLINK-3185,PAYLOAD,2024-08-09 13:21:38,15.08845283,0.0001487,53.2169,9.9862,80.9231,279.193,0.00015996,2.259e-05,0.0,0 STARLINK-3185,1 51144U 22005AS  24222.55670084  .00002259  00000-0  15996-3 0  9992,2 51144  53.2169   9.9862 0001487  80.9231 279.1930 15.08845283141618,6917.864,95.437,540.758,538.701,0.0
51144.0,STARLINK-3185,PAYLOAD,2024-08-09 19:43:10,15.08863051,0.0001201,53.2173,8.789,104.2014,255.9112,0.00028646,4.277e-05,0.0,0 STARLINK-3185,1 51144U 22005AS  24222.82164767  .00004277  00000-0  28646-3 0  9996,2 51144  53.2173   8.7890 0001201 104.2014 255.9112 15.08863051142768,6917.81,95.436,540.506,538.844,0.0
51144.0,STARLINK-3185,PAYLOAD,2024-08-10 13:12:25,15.08841707,0.0001504,53.2186,5.522,91.8785,268.2379,-4.4238e-05,-9.92e-06,0.0,0 STARLINK-3185,1 51144U 22005AS  24223.55029868 -.00000992  00000-0 -44238-4 0  9997,2 51144  53.2186   5.5220 0001504  91.8785 268.2379 15.08841707142874,6917.875,95.437,540.781,538.7,0.0
51144.0,STARLINK-3185,PAYLOAD,2024-08-10 14:47:48,15.08843859,0.000152,53.2188,5.225,78.459,281.6573,-2.5646e-05,-6.96e-06,0.0,0 STARLINK-3185,1 51144U 22005AS  24223.61653775 -.00000696  00000-0 -25646-4 0  9997,2 51144  53.2188   5.2250 0001520  78.4590 281.6573 15.08843859141772,6917.869,95.437,540.785,538.682,0.0
51144.0,STARLINK-3185,PAYLOAD,2024-08-10 19:33:57,15.08860727,0.000129,53.2179,4.3312,74.5518,285.5617,0.00023839,3.51e-05,0.0,0 STARLINK-3185,1 51144U 22005AS  24223.81524857  .00003510  00000-0  23839-3 0  9994,2 51144  53.2179   4.3312 0001290  74.5518 285.5617 15.08860727142914,6917.817,95.436,540.574,538.79,0.0
51144.0,STARLINK-3185,PAYLOAD,2024-08-11 01:55:30,15.08842776,0.0001532,53.2179,3.1345,55.8392,304.2745,-8.7225e-05,-1.676e-05,0.0,0 STARLINK-3185,1 51144U 22005AS  24224.08021449 -.00001676  00000-0 -87225-4 0  9996,2 51144  53.2179   3.1345 0001532  55.8392 304.2745 15.08842776142957,6917.872,95.437,540.797,538.677,0.0
51144.0,STARLINK-3185,PAYLOAD,2024-08-11 09:52:27,15.08824937,0.0001351,53.2191,1.6547,94.1156,265.9991,-0.00020843,-3.602e-05,0.0,0 STARLINK-3185,1 51144U 22005AS  24224.41142735 -.00003602  00000-0 -20843-3 0  9998,2 51144  53.2191   1.6547 0001351  94.1156 265.9991 15.08824937143003,6917.926,95.439,540.726,538.857,0.0
51144.0,STARLINK-3185,PAYLOAD,2024-08-11 16:13:58,15.08849162,8.58e-05,53.2189,0.4648,70.729,289.3795,0.00016906,2.405e-05,0.0,0 STARLINK-3185,1 51144U 22005AS  24224.67637525  .00002405  00000-0  16906-3 0  9995,2 51144  53.2189   0.4648 0000858  70.7290 289.3795 15.08849162143042,6917.852,95.437,540.311,539.124,0.0
51144.0,STARLINK-3185,PAYLOAD,2024-08-12 09:43:13,15.08845354,0.0001212,53.2179,357.1984,78.4952,281.6176,-1.9754e-05,-6.02e-06,0.0,0 STARLINK-3185,1 51144U 22005AS  24225.40501807 -.00000602  00000-0 -19754-4 0  9994,2 51144  53.2179 357.1984 0001212  78.4952 281.6176 15.08845354143150,6917.864,95.437,540.567,538.891,0.0
